[{"OBJECT_NAME":"SHIYAN-6 01 (SY-6 01)","OBJECT_ID":"2018-094B","EPOCH":"2026-03-09T23:04:36.967872","MEAN_MOTION":15.28649156,"ECCENTRICITY":0.00144834,"INCLINATION":97.3669,"RA_OF_ASC_NODE":84.0964,"ARG_OF_PERICENTER":135.6758,"MEAN_ANOMALY":224.5644,"EPHEMERIS_TYPE":0,"CLASSIFICATION_TYPE":"U","NORAD_CAT_ID":43711,"ELEMENT_SET_NO":999,"REV_AT_EPOCH":40632,"BSTAR":0.00024768444,"MEAN_MOTION_DOT":6.847e-5,"MEAN_MOTION_DDOT":0},{"OBJECT_NAME":"GAOFEN-14 02","OBJECT_ID":"2025-242A","EPOCH":"2026-03-09T22:45:15.300864","MEAN_MOTION":15.2569294,"ECCENTRICITY":9.85e-5,"INCLINATION":97.4192,"RA_OF_ASC_NODE":145.3638,"ARG_OF_PERICENTER":335.9045,"MEAN_ANOMALY":24.2147,"EPHEMERIS_TYPE":0,"CLASSIFICATION_TYPE":"U","NORAD_CAT_ID":66175,"ELEMENT_SET_NO":999,"REV_AT_EPOCH":2056,"BSTAR":0.00036713829,"MEAN_MOTION_DOT":9.284e-5,"MEAN_MOTION_DDOT":0}]
